STARLINK-1780
1 26684C 20073Q   21325.14356381  .00004150  00000-0  27815-3 0  3253
2 26684  53.0524  87.5890 0001246  84.4600 333.2781 15.06382508    17
